[
  {
    "naam": "t1 Taxilocatie 1",
    "straat": "Pakhuisstraat",
    "huisnr": "",
    "postcode": "9000",
    "deelgemeente": "Gent",
    "land": "Belgium",
    "image": "/images/resto/1.jpg",
    "column_8": "",
    "column_9": "",
    "column_10": ""
  },
  {
    "naam": "t2 Taxilocatie 2",
    "straat": "Woodrow Wilsonplein",
    "huisnr": "139",
    "postcode": "9000",
    "deelgemeente": "Gent",
    "land": "Belgium",
    "column_8": "",
    "column_9": "",
    "column_10": ""
  },
  {
    "naam": "t3 Taxilocatie 3",
    "straat": "Pr. Clementinalaan",
    "huisnr": "197",
    "postcode": "9000",
    "deelgemeente": "Gent",
    "land": "Belgium",
    "image": "/images/resto/3.jpg",
    "column_8": "",
    "column_9": "",
    "column_10": ""
  },
  {
    "naam": "t4 Taxilocatie 4",
    "straat": "Koopvaardijbaan",
    "huisnr": "3885",
    "postcode": "9000",
    "deelgemeente": "Gent",
    "land": "Belgium",
    "image": "/images/resto/4.jpg",
    "column_8": "",
    "column_9": "",
    "column_10": ""
  },
  {
    "naam": "t5 Taxilocatie 5",
    "straat": "Maaltekouter",
    "huisnr": "1",
    "postcode": "9051",
    "deelgemeente": "Gent",
    "land": "Belgium",
    "image": "/images/resto/5.jpg",
    "column_8": "",
    "column_9": "",
    "column_10": ""
  },
  {
    "naam": "t6 Taxilocatie 6",
    "straat": "Universiteitstraat",
    "huisnr": "7",
    "postcode": "9000",
    "deelgemeente": "Gent",
    "land": "Belgium",
    "image": "/images/resto/6.jpeg",
    "column_8": "",
    "column_9": "",
    "column_10": ""
  },
  {
    "naam": "t7 Taxilocatie 7",
    "straat": "Conduitsteeg",
    "huisnr": "176",
    "postcode": "9000",
    "deelgemeente": "Gent",
    "land": "Belgium",
    "image": "/images/resto/7.jpeg",
    "column_8": "",
    "column_9": "",
    "column_10": ""
  },
  {
    "naam": "t8 Taxilocatie 8",
    "straat": "Universiteitstraat",
    "huisnr": "9A",
    "postcode": "9000",
    "deelgemeente": "Gent",
    "land": "Belgium",
    "image": "/images/resto/8.jpeg",
    "column_8": "",
    "column_9": "",
    "column_10": ""
  }
]